HAWK-5A                 
1 52757U 22057AB  26197.25294804  .00010472  00000+0  17362-3 0  9996
2 52757  97.6626 358.0044 0003237 333.3201  26.7884 15.52346327230859
HAWK-6B                 
1 55324U 23011A   26197.16540259  .00002490  00000+0  11131-3 0  9997
2 55324  40.4971 183.0180 0004302 245.3906 114.6455 15.23158930192268
HAWK-6C                 
1 55326U 23011C   26197.29590314  .00002158  00000+0  97569-4 0  9991
2 55326  40.4963 179.0925 0004832 239.5960 120.4372 15.23160097192299
HAWK-6A                 
1 55327U 23011D   26197.29594078  .00002283  00000+0  10276-3 0  9991
2 55327  40.4973 180.7192 0004421 236.7888 123.2498 15.23159879192294
HAWK-7A                 
1 56191U 23054P   26197.19610233  .00002914  00000+0  11052-3 0  9993
2 56191  97.2660  83.7959 0001296 327.4468  32.6692 15.27638339181451
HAWK-7B                 
1 56193U 23054R   26197.19603444  .00002914  00000+0  11053-3 0  9992
2 56193  97.2687  82.0700 0001199  14.8690 345.2584 15.27636666181458
HAWK-7C                 
1 56200U 23054Y   26197.19590957  .00002877  00000+0  10915-3 0  9999
2 56200  97.2662  82.8298 0000813 350.7437   9.3788 15.27639304181459
