OBJECT_NAME,OBJECT_ID,EPOCH,MEAN_MOTION,ECCENTRICITY,INCLINATION,RA_OF_ASC_NODE,ARG_OF_PERICENTER,MEAN_ANOMALY,EPHEMERIS_TYPE,CLASSIFICATION_TYPE,NORAD_CAT_ID,ELEMENT_SET_NO,REV_AT_EPOCH,BSTAR,MEAN_MOTION_DOT,MEAN_MOTION_DDOT
HAWK-5A,2022-057AB,2026-07-16T06:04:14.710656,15.52346327,.00032371,97.6626,358.0044,333.3201,26.7884,0,U,52757,999,23085,.1736192E-3,.10472E-3,0
HAWK-6B,2023-011A,2026-07-16T03:58:10.783776,15.23158930,.00043024,40.4971,183.0180,245.3906,114.6455,0,U,55324,999,19226,.11131451E-3,.249E-4,0
HAWK-6C,2023-011C,2026-07-16T07:06:06.031296,15.23160097,.00048321,40.4963,179.0925,239.5960,120.4372,0,U,55326,999,19229,.97568552E-4,.2158E-4,0
HAWK-6A,2023-011D,2026-07-16T07:06:09.283392,15.23159879,.00044212,40.4973,180.7192,236.7888,123.2498,0,U,55327,999,19229,.10276227E-3,.2283E-4,0
HAWK-7A,2023-054P,2026-07-16T04:42:23.241312,15.27638339,.00012964,97.2660,83.7959,327.4468,32.6692,0,U,56191,999,18145,.11052185E-3,.2914E-4,0
HAWK-7B,2023-054R,2026-07-16T04:42:17.375616,15.27636666,.00011997,97.2687,82.0700,14.8690,345.2584,0,U,56193,999,18145,.11052853E-3,.2914E-4,0
HAWK-7C,2023-054Y,2026-07-16T04:42:06.586848,15.27639304,.00008139,97.2662,82.8298,350.7437,9.3788,0,U,56200,999,18145,.1091451E-3,.2877E-4,0
